{"type": "FeatureCollection", "features": [ {"type": "Feature", "properties": {"norad_id": 39620, "name": "COSMOS 2492 (754)", "group": "gnss", "lat": -50.34654012441952, "lon": -73.19673451894049, "alt_km": 19099.78512280361, "timestamp": "2025-12-10T14:53:37.338408+00:00", "meta": {"OBJECT_NAME": "COSMOS 2492 (754)", "OBJECT_ID": "2014-012A", "EPOCH": "2025-12-10T05:26:14.645760", "MEAN_MOTION": 2.13102946, "ECCENTRICITY": 0.00142108, "INCLINATION": 65.4093, "RA_OF_ASC_NODE": 320.3563, "ARG_OF_PERICENTER": 311.2007, "MEAN_ANOMALY": 48.6747, "EPHEMERIS_TYPE": 0, "CLASSIFICATION_TYPE": "U", "NORAD_CAT_ID": 39620, "ELEMENT_SET_NO": 999, "REV_AT_EPOCH": 9121, "BSTAR": 0, "MEAN_MOTION_DOT": -5e-07, "MEAN_MOTION_DDOT": 0}, "tle": {"line1": "1 39620U 14012A   25344.22655840 -.00000050  00000+0  00000+0 0  9992", "line2": "2 39620  65.4093 320.3563 0014210 311.2007  48.6747  2.13102946 91210"}}, "geometry": {"type": "Point", "coordinates": [-73.19673451894049, -50.34654012441952]}}, {"type": "Feature", "properties": {"norad_id": 39635, "name": "IRNSS-1B", "group": "gnss", "lat": 26.09251430130486, "lon": 0.8983981852856789, "alt_km": 35754.22837210384, "timestamp": "2025-12-10T14:53:37.338418+00:00", "meta": {"OBJECT_NAME": "IRNSS-1B", "OBJECT_ID": "2014-017A", "EPOCH": "2025-12-07T19:02:08.350080", "MEAN_MOTION": 1.00276938, "ECCENTRICITY": 0.00176548, "INCLINATION": 28.8332, "RA_OF_ASC_NODE": 243.6763, "ARG_OF_PERICENTER": 183.0277, "MEAN_ANOMALY": 350.7455, "EPHEMERIS_TYPE": 0, "CLASSIFICATION_TYPE": "U", "NORAD_CAT_ID": 39635, "ELEMENT_SET_NO": 999, "REV_AT_EPOCH": 4287, "BSTAR": 0, "MEAN_MOTION_DOT": 1.18e-06, "MEAN_MOTION_DDOT": 0}, "tle": {"line1": "1 39635U 14017A   25341.79315220  .00000118  00000+0  00000+0 0  9991", "line2": "2 39635  28.8332 243.6763 0017654 183.0277 350.7455  1.00276938 42872"}}, "geometry": {"type": "Point", "coordinates": [0.8983981852856789, 26.09251430130486]}}, {"type": "Feature", "properties": {"norad_id": 39727, "name": "LUCH 5V (SDCM/PRN 141)", "group": "gnss", "lat": -2.575457186785343, "lon": 37.892229292022556, "alt_km": 35798.31924746047, "timestamp": "2025-12-10T14:53:37.338429+00:00", "meta": {"OBJECT_NAME": "LUCH 5V (SDCM/PRN 141)", "OBJECT_ID": "2014-023A", "EPOCH": "2025-12-09T19:09:38.791296", "MEAN_MOTION": 1.00269824, "ECCENTRICITY": 0.00046417, "INCLINATION": 4.662, "RA_OF_ASC_NODE": 71.5584, "ARG_OF_PERICENTER": 201.3365, "MEAN_ANOMALY": 188.0676, "EPHEMERIS_TYPE": 0, "CLASSIFICATION_TYPE": "U", "NORAD_CAT_ID": 39727, "ELEMENT_SET_NO": 999, "REV_AT_EPOCH": 4246, "BSTAR": 0, "MEAN_MOTION_DOT": -2.67e-06, "MEAN_MOTION_DDOT": 0}, "tle": {"line1": "1 39727U 14023A   25343.79836564 -.00000267  00000+0  00000+0 0  9997", "line2": "2 39727   4.6620  71.5584 0004641 201.3365 188.0676  1.00269824 42467"}}, "geometry": {"type": "Point", "coordinates": [37.892229292022556, -2.575457186785343]}}, {"type": "Feature", "properties": {"norad_id": 39741, "name": "GPS BIIF-6  (PRN 06)", "group": "gnss", "lat": 56.48720760713477, "lon": 64.3079882095909, "alt_km": 20241.15680176131, "timestamp": "2025-12-10T14:53:37.338439+00:00", "meta": {"OBJECT_NAME": "GPS BIIF-6  (PRN 06)", "OBJECT_ID": "2014-026A", "EPOCH": "2025-12-10T00:01:18.987744", "MEAN_MOTION": 2.00561492, "ECCENTRICITY": 0.00391139, "INCLINATION": 56.5847, "RA_OF_ASC_NODE": 338.8829, "ARG_OF_PERICENTER": 318.5217, "MEAN_ANOMALY": 41.1927, "EPHEMERIS_TYPE": 0, "CLASSIFICATION_TYPE": "U", "NORAD_CAT_ID": 39741, "ELEMENT_SET_NO": 999, "REV_AT_EPOCH": 8474, "BSTAR": 0, "MEAN_MOTION_DOT": -8.4e-07, "MEAN_MOTION_DDOT": 0}, "tle": {"line1": "1 39741U 14026A   25344.00091421 -.00000084  00000+0  00000+0 0  9993", "line2": "2 39741  56.5847 338.8829 0039113 318.5217  41.1927  2.00561492 84742"}}, "geometry": {"type": "Point", "coordinates": [64.3079882095909, 56.48720760713477]}}, {"type": "Feature", "properties": {"norad_id": 40001, "name": "COSMOS 2500 (755)", "group": "gnss", "lat": 9.015220062924453, "lon": 135.91614325422535, "alt_km": 19115.092630869618, "timestamp": "2025-12-10T14:53:37.338449+00:00", "meta": {"OBJECT_NAME": "COSMOS 2500 (755)", "OBJECT_ID": "2014-032A", "EPOCH": "2025-12-09T11:02:48.490944", "MEAN_MOTION": 2.13105796, "ECCENTRICITY": 0.000831, "INCLINATION": 65.3451, "RA_OF_ASC_NODE": 320.1442, "ARG_OF_PERICENTER": 219.1348, "MEAN_ANOMALY": 140.802, "EPHEMERIS_TYPE": 0, "CLASSIFICATION_TYPE": "U", "NORAD_CAT_ID": 40001, "ELEMENT_SET_NO": 999, "REV_AT_EPOCH": 8941, "BSTAR": 0, "MEAN_MOTION_DOT": -4.9e-07, "MEAN_MOTION_DDOT": 0}, "tle": {"line1": "1 40001U 14032A   25343.46028346 -.00000049  00000+0  00000+0 0  9997", "line2": "2 40001  65.3451 320.1442 0008310 219.1348 140.8020  2.13105796 89418"}}, "geometry": {"type": "Point", "coordinates": [135.91614325422535, 9.015220062924453]}}, {"type": "Feature", "properties": {"norad_id": 40105, "name": "GPS BIIF-7  (PRN 09)", "group": "gnss", "lat": 19.569938715619315, "lon": 110.26117507643923, "alt_km": 20187.609178034396, "timestamp": "2025-12-10T14:53:37.338459+00:00", "meta": {"OBJECT_NAME": "GPS BIIF-7  (PRN 09)", "OBJECT_ID": "2014-045A", "EPOCH": "2025-12-09T14:09:41.937408", "MEAN_MOTION": 2.00572274, "ECCENTRICITY": 0.0032763, "INCLINATION": 55.2273, "RA_OF_ASC_NODE": 96.0246, "ARG_OF_PERICENTER": 119.7913, "MEAN_ANOMALY": 240.5219, "EPHEMERIS_TYPE": 0, "CLASSIFICATION_TYPE": "U", "NORAD_CAT_ID": 40105, "ELEMENT_SET_NO": 999, "REV_AT_EPOCH": 8227, "BSTAR": 0, "MEAN_MOTION_DOT": 2e-08, "MEAN_MOTION_DDOT": 0}, "tle": {"line1": "1 40105U 14045A   25343.59006872  .00000002  00000+0  00000+0 0  9998", "line2": "2 40105  55.2273  96.0246 0032763 119.7913 240.5219  2.00572274 82276"}}, "geometry": {"type": "Point", "coordinates": [110.26117507643923, 19.569938715619315]}}, {"type": "Feature", "properties": {"norad_id": 40128, "name": "GSAT0201 (GALILEO 5)", "group": "gnss", "lat": -47.99421232952398, "lon": -153.00364559013548, "alt_km": 22338.21276882572, "timestamp": "2025-12-10T14:53:37.338469+00:00", "meta": {"OBJECT_NAME": "GSAT0201 (GALILEO 5)", "OBJECT_ID": "2014-050A", "EPOCH": "2025-12-07T12:54:32.900256", "MEAN_MOTION": 1.85519488, "ECCENTRICITY": 0.16474216, "INCLINATION": 49.0828, "RA_OF_ASC_NODE": 281.2757, "ARG_OF_PERICENTER": 172.085, "MEAN_ANOMALY": 190.9173, "EPHEMERIS_TYPE": 0, "CLASSIFICATION_TYPE": "U", "NORAD_CAT_ID": 40128, "ELEMENT_SET_NO": 999, "REV_AT_EPOCH": 7476, "BSTAR": 0, "MEAN_MOTION_DOT": -5.9e-07, "MEAN_MOTION_DDOT": 0}, "tle": {"line1": "1 40128U 14050A   25341.53788079 -.00000059  00000+0  00000+0 0  9990", "line2": "2 40128  49.0828 281.2757 1647421 172.0850 190.9173  1.85519488 74761"}}, "geometry": {"type": "Point", "coordinates": [-153.00364559013548, -47.99421232952398]}}, {"type": "Feature", "properties": {"norad_id": 40129, "name": "GSAT0202 (GALILEO 6)", "group": "gnss", "lat": 45.837462307043054, "lon": -16.71885296112853, "alt_km": 21740.018268460397, "timestamp": "2025-12-10T14:53:37.338479+00:00", "meta": {"OBJECT_NAME": "GSAT0202 (GALILEO 6)", "OBJECT_ID": "2014-050B", "EPOCH": "2025-12-08T20:55:50.636640", "MEAN_MOTION": 1.85520286, "ECCENTRICITY": 0.16482545, "INCLINATION": 49.097, "RA_OF_ASC_NODE": 280.3049, "ARG_OF_PERICENTER": 172.8865, "MEAN_ANOMALY": 189.8198, "EPHEMERIS_TYPE": 0, "CLASSIFICATION_TYPE": "U", "NORAD_CAT_ID": 40129, "ELEMENT_SET_NO": 999, "REV_AT_EPOCH": 7695, "BSTAR": 0, "MEAN_MOTION_DOT": -6.8e-07, "MEAN_MOTION_DDOT": 0}, "tle": {"line1": "1 40129U 14050B   25342.87211385 -.00000068  00000+0  00000+0 0  9990", "line2": "2 40129  49.0970 280.3049 1648254 172.8865 189.8198  1.85520286 76958"}}, "geometry": {"type": "Point", "coordinates": [-16.71885296112853, 45.837462307043054]}}, {"type": "Feature", "properties": {"norad_id": 40269, "name": "IRNSS-1C", "group": "gnss", "lat": -5.541575181051845, "lon": 25.827339775420928, "alt_km": 35761.11675343758, "timestamp": "2025-12-10T14:53:37.338489+00:00", "meta": {"OBJECT_NAME": "IRNSS-1C", "OBJECT_ID": "2014-061A", "EPOCH": "2025-12-09T22:01:51.672288", "MEAN_MOTION": 1.00268182, "ECCENTRICITY": 0.00177509, "INCLINATION": 6.0338, "RA_OF_ASC_NODE": 92.6789, "ARG_OF_PERICENTER": 2.3828, "MEAN_ANOMALY": 37.2139, "EPHEMERIS_TYPE": 0, "CLASSIFICATION_TYPE": "U", "NORAD_CAT_ID": 40269, "ELEMENT_SET_NO": 999, "REV_AT_EPOCH": 4079, "BSTAR": 0, "MEAN_MOTION_DOT": -1.57e-06, "MEAN_MOTION_DDOT": 0}, "tle": {"line1": "1 40269U 14061A   25343.91795917 -.00000157  00000+0  00000+0 0  9990", "line2": "2 40269   6.0338  92.6789 0017750   2.3828  37.2139  1.00268182 40790"}}, "geometry": {"type": "Point", "coordinates": [25.827339775420928, -5.541575181051845]}}, {"type": "Feature", "properties": {"norad_id": 40294, "name": "GPS BIIF-8  (PRN 03)", "group": "gnss", "lat": 50.13792237047789, "lon": 166.8108834787115, "alt_km": 20060.11543502431, "timestamp": "2025-12-10T14:53:37.338505+00:00", "meta": {"OBJECT_NAME": "GPS BIIF-8  (PRN 03)", "OBJECT_ID": "2014-068A", "EPOCH": "2025-12-09T11:13:35.595840", "MEAN_MOTION": 2.00564545, "ECCENTRICITY": 0.00607875, "INCLINATION": 56.8554, "RA_OF_ASC_NODE": 38.2726, "ARG_OF_PERICENTER": 69.25, "MEAN_ANOMALY": 291.455, "EPHEMERIS_TYPE": 0, "CLASSIFICATION_TYPE": "U", "NORAD_CAT_ID": 40294, "ELEMENT_SET_NO": 999, "REV_AT_EPOCH": 8140, "BSTAR": 0, "MEAN_MOTION_DOT": -8.3e-07, "MEAN_MOTION_DDOT": 0}, "tle": {"line1": "1 40294U 14068A   25343.46777310 -.00000083  00000+0  00000+0 0  9990", "line2": "2 40294  56.8554  38.2726 0060787  69.2500 291.4550  2.00564545 81402"}}, "geometry": {"type": "Point", "coordinates": [166.8108834787115, 50.13792237047789]}}]}